{
  "type": "FeatureCollection",
  "features": [
    {
      "type": "Feature",
      "properties": {
        "norad_id": 42917,
        "name": "QZS-3 (QZSS/PRN 199)",
        "group": "gnss",
        "lat": -0.03651437955385387,
        "lon": 112.30946067914903,
        "alt_km": 35795.23172804035,
        "timestamp": "2025-12-22T16:55:17.704655+00:00",
        "meta_object_name": "QZS-3 (QZSS/PRN 199)",
        "meta_object_id": "2017-048A",
        "meta_epoch": "2025-12-21T22:21:41.465088",
        "meta_mean_motion": 1.00267203,
        "meta_eccentricity": 0.00018688,
        "meta_inclination": 0.0656,
        "meta_ra_of_asc_node": 183.4535,
        "meta_arg_of_pericenter": 97.0326,
        "meta_mean_anomaly": 272.6848,
        "meta_ephemeris_type": 0,
        "meta_classification_type": "U",
        "meta_norad_cat_id": 42917,
        "meta_element_set_no": 999,
        "meta_rev_at_epoch": 3048,
        "meta_bstar": 0,
        "meta_mean_motion_dot": -3.26e-06,
        "meta_mean_motion_ddot": 0,
        "tle_line1": "1 42917U 17048A   25355.93172992 -.00000326  00000+0  00000+0 0  9995",
        "tle_line2": "2 42917   0.0656 183.4535 0001868  97.0326 272.6848  1.00267203 30484"
      },
      "geometry": {
        "type": "Point",
        "coordinates": [
          112.30946067914903,
          -0.03651437955385387
        ]
      }
    },
    {
      "type": "Feature",
      "properties": {
        "norad_id": 42939,
        "name": "COSMOS 2522 (752)",
        "group": "gnss",
        "lat": 16.118555768586745,
        "lon": -154.02059690256755,
        "alt_km": 19142.773174802413,
        "timestamp": "2025-12-22T16:55:17.704667+00:00",
        "meta_object_name": "COSMOS 2522 (752)",
        "meta_object_id": "2017-055A",
        "meta_epoch": "2025-12-20T19:18:35.639424",
        "meta_mean_motion": 2.13102071,
        "meta_eccentricity": 0.00063061,
        "meta_inclination": 64.0764,
        "meta_ra_of_asc_node": 197.9542,
        "meta_arg_of_pericenter": 223.7674,
        "meta_mean_anomaly": 136.256,
        "meta_ephemeris_type": 0,
        "meta_classification_type": "U",
        "meta_norad_cat_id": 42939,
        "meta_element_set_no": 999,
        "meta_rev_at_epoch": 6417,
        "meta_bstar": 0,
        "meta_mean_motion_dot": 9.9e-07,
        "meta_mean_motion_ddot": 0,
        "tle_line1": "1 42939U 17055A   25354.80457916  .00000099  00000+0  00000+0 0  9990",
        "tle_line2": "2 42939  64.0764 197.9542 0006306 223.7674 136.2560  2.13102071 64177"
      },
      "geometry": {
        "type": "Point",
        "coordinates": [
          -154.02059690256755,
          16.118555768586745
        ]
      }
    },
    {
      "type": "Feature",
      "properties": {
        "norad_id": 42965,
        "name": "QZS-4 (QZSS/PRN 195)",
        "group": "gnss",
        "lat": 29.81641881199484,
        "lon": 123.03719710787759,
        "alt_km": 38211.62266313737,
        "timestamp": "2025-12-22T16:55:17.704679+00:00",
        "meta_object_name": "QZS-4 (QZSS/PRN 195)",
        "meta_object_id": "2017-062A",
        "meta_epoch": "2025-12-20T12:23:32.377344",
        "meta_mean_motion": 1.00250818,
        "meta_eccentricity": 0.07514763,
        "meta_inclination": 40.2219,
        "meta_ra_of_asc_node": 345.7724,
        "meta_arg_of_pericenter": 271.7049,
        "meta_mean_anomaly": 153.5074,
        "meta_ephemeris_type": 0,
        "meta_classification_type": "U",
        "meta_norad_cat_id": 42965,
        "meta_element_set_no": 999,
        "meta_rev_at_epoch": 3001,
        "meta_bstar": 0,
        "meta_mean_motion_dot": -3.25e-06,
        "meta_mean_motion_ddot": 0,
        "tle_line1": "1 42965U 17062A   25354.51634696 -.00000325  00000+0  00000+0 0  9990",
        "tle_line2": "2 42965  40.2219 345.7724 0751476 271.7049 153.5074  1.00250818 30012"
      },
      "geometry": {
        "type": "Point",
        "coordinates": [
          123.03719710787759,
          29.81641881199484
        ]
      }
    },
    {
      "type": "Feature",
      "properties": {
        "norad_id": 43001,
        "name": "BEIDOU-3 M1 (C19)",
        "group": "gnss",
        "lat": 21.23471008471126,
        "lon": -125.9475428996466,
        "alt_km": 21548.266077876597,
        "timestamp": "2025-12-22T16:55:17.704694+00:00",
        "meta_object_name": "BEIDOU-3 M1 (C19)",
        "meta_object_id": "2017-069A",
        "meta_epoch": "2025-12-21T09:37:16.890816",
        "meta_mean_motion": 1.86231333,
        "meta_eccentricity": 0.00096297,
        "meta_inclination": 56.5338,
        "meta_ra_of_asc_node": 68.9479,
        "meta_arg_of_pericenter": 302.2645,
        "meta_mean_anomaly": 57.6886,
        "meta_ephemeris_type": 0,
        "meta_classification_type": "U",
        "meta_norad_cat_id": 43001,
        "meta_element_set_no": 999,
        "meta_rev_at_epoch": 5529,
        "meta_bstar": 0,
        "meta_mean_motion_dot": -3.5e-07,
        "meta_mean_motion_ddot": 0,
        "tle_line1": "1 43001U 17069A   25355.40088994 -.00000035  00000+0  00000+0 0  9990",
        "tle_line2": "2 43001  56.5338  68.9479 0009629 302.2645  57.6886  1.86231333 55292"
      },
      "geometry": {
        "type": "Point",
        "coordinates": [
          -125.9475428996466,
          21.23471008471126
        ]
      }
    },
    {
      "type": "Feature",
      "properties": {
        "norad_id": 43002,
        "name": "BEIDOU-3 M2 (C20)",
        "group": "gnss",
        "lat": -13.0055709734203,
        "lon": -102.26517086416007,
        "alt_km": 21542.757367661714,
        "timestamp": "2025-12-22T16:55:17.704705+00:00",
        "meta_object_name": "BEIDOU-3 M2 (C20)",
        "meta_object_id": "2017-069B",
        "meta_epoch": "2025-12-21T08:08:32.718912",
        "meta_mean_motion": 1.86231017,
        "meta_eccentricity": 0.00066324,
        "meta_inclination": 56.5336,
        "meta_ra_of_asc_node": 68.9856,
        "meta_arg_of_pericenter": 329.1599,
        "meta_mean_anomaly": 30.8471,
        "meta_ephemeris_type": 0,
        "meta_classification_type": "U",
        "meta_norad_cat_id": 43002,
        "meta_element_set_no": 999,
        "meta_rev_at_epoch": 5528,
        "meta_bstar": 0,
        "meta_mean_motion_dot": -3.5e-07,
        "meta_mean_motion_ddot": 0,
        "tle_line1": "1 43002U 17069B   25355.33926758 -.00000035  00000+0  00000+0 0  9992",
        "tle_line2": "2 43002  56.5336  68.9856 0006632 329.1599  30.8471  1.86231017 55288"
      },
      "geometry": {
        "type": "Point",
        "coordinates": [
          -102.26517086416007,
          -13.0055709734203
        ]
      }
    },
    {
      "type": "Feature",
      "properties": {
        "norad_id": 43055,
        "name": "GSAT0215 (GALILEO 19)",
        "group": "gnss",
        "lat": 21.286339800574613,
        "lon": 30.61929999969252,
        "alt_km": 23223.08802897249,
        "timestamp": "2025-12-22T16:55:17.704723+00:00",
        "meta_object_name": "GSAT0215 (GALILEO 19)",
        "meta_object_id": "2017-079A",
        "meta_epoch": "2025-12-21T06:45:20.639232",
        "meta_mean_motion": 1.70474038,
        "meta_eccentricity": 0.0001214,
        "meta_inclination": 55.1273,
        "meta_ra_of_asc_node": 226.4024,
        "meta_arg_of_pericenter": 349.3948,
        "meta_mean_anomaly": 10.7111,
        "meta_ephemeris_type": 0,
        "meta_classification_type": "U",
        "meta_norad_cat_id": 43055,
        "meta_element_set_no": 999,
        "meta_rev_at_epoch": 4995,
        "meta_bstar": 0,
        "meta_mean_motion_dot": 7.3e-07,
        "meta_mean_motion_ddot": 0,
        "tle_line1": "1 43055U 17079A   25355.28148888  .00000073  00000+0  00000+0 0  9996",
        "tle_line2": "2 43055  55.1273 226.4024 0001214 349.3948  10.7111  1.70474038 49952"
      },
      "geometry": {
        "type": "Point",
        "coordinates": [
          30.61929999969252,
          21.286339800574613
        ]
      }
    },
    {
      "type": "Feature",
      "properties": {
        "norad_id": 43056,
        "name": "GSAT0216 (GALILEO 20)",
        "group": "gnss",
        "lat": -20.35206544830143,
        "lon": -148.60734648737187,
        "alt_km": 23218.071590426105,
        "timestamp": "2025-12-22T16:55:17.704735+00:00",
        "meta_object_name": "GSAT0216 (GALILEO 20)",
        "meta_object_id": "2017-079B",
        "meta_epoch": "2025-12-19T19:30:44.926272",
        "meta_mean_motion": 1.70474153,
        "meta_eccentricity": 0.00023685,
        "meta_inclination": 55.1281,
        "meta_ra_of_asc_node": 226.4428,
        "meta_arg_of_pericenter": 323.7267,
        "meta_mean_anomaly": 36.3665,
        "meta_ephemeris_type": 0,
        "meta_classification_type": "U",
        "meta_norad_cat_id": 43056,
        "meta_element_set_no": 999,
        "meta_rev_at_epoch": 4994,
        "meta_bstar": 0,
        "meta_mean_motion_dot": 6.9e-07,
        "meta_mean_motion_ddot": 0,
        "tle_line1": "1 43056U 17079B   25353.81301998  .00000069  00000+0  00000+0 0  9992",
        "tle_line2": "2 43056  55.1281 226.4428 0002368 323.7267  36.3665  1.70474153 49946"
      },
      "geometry": {
        "type": "Point",
        "coordinates": [
          -148.60734648737187,
          -20.35206544830143
        ]
      }
    }
  ]
}